{"type": "FeatureCollection", "name": "Hutan_non_mangrove", "features": [{"type": "Feature", "properties": {"Type": "Hutan non mangrove"}, "geometry": {"type": "Polygon", "coordinates": [[[112.457707, -7.893925], [112.459224, -7.901634], [112.464804, -7.900809], [112.464021, -7.892906], [112.457707, -7.893925]]]}}, {"type": "Feature", "properties": {"Type": "Hutan non mangrove"}, "geometry": {"type": "Polygon", "coordinates": [[[112.464293, -7.893045], [112.466153, -7.900366], [112.472908, -7.899203], [112.473544, -7.891979], [112.464293, -7.893045]]]}}, {"type": "Feature", "properties": {"Type": "Hutan non mangrove"}, "geometry": {"type": "Polygon", "coordinates": [[[112.416218, -7.892692], [112.422824, -7.915308], [112.456285, -7.904071], [112.450828, -7.873345], [112.416218, -7.892692]]]}}, {"type": "Feature", "properties": {"Type": "Hutan non mangrove"}, "geometry": {"type": "Polygon", "coordinates": [[[112.460154, -7.903184], [112.457856, -7.927934], [112.471212, -7.92765], [112.472361, -7.902615], [112.460154, -7.903184]]]}}, {"type": "Feature", "properties": {"Type": "Hutan non mangrove"}, "geometry": {"type": "Polygon", "coordinates": [[[112.475494, -7.892753], [112.473729, -7.90468], [112.483249, -7.906116], [112.483438, -7.893502], [112.475494, -7.892753]]]}}, {"type": "Feature", "properties": {"Type": "Hutan non mangrove"}, "geometry": {"type": "Polygon", "coordinates": [[[112.48577, -7.893315], [112.485896, -7.905429], [112.496172, -7.905866], [112.498442, -7.893752], [112.48577, -7.893315]]]}}, {"type": "Feature", "properties": {"Type": "Hutan non mangrove"}, "geometry": {"type": "Polygon", "coordinates": [[[112.47376, -7.906566], [112.472878, -7.926922], [112.48328, -7.92611], [112.483154, -7.907565], [112.483154, -7.907565], [112.47376, -7.906566]]]}}, {"type": "Feature", "properties": {"Type": "Hutan non mangrove"}, "geometry": {"type": "Polygon", "coordinates": [[[112.486243, -7.908002], [112.485486, -7.924174], [112.498347, -7.9238], [112.498284, -7.908127], [112.498284, -7.908127], [112.486243, -7.908002]]]}}, {"type": "Feature", "properties": {"Type": "Hutan non mangrove"}, "geometry": {"type": "Polygon", "coordinates": [[[112.45727, -7.930716], [112.458113, -7.947979], [112.473294, -7.947283], [112.47231, -7.929741], [112.45727, -7.930716]]]}}, {"type": "Feature", "properties": {"Type": "Hutan non mangrove"}, "geometry": {"type": "Polygon", "coordinates": [[[112.473335, -7.929489], [112.475653, -7.946712], [112.487697, -7.945245], [112.48525, -7.928404], [112.473335, -7.929489]]]}}, {"type": "Feature", "properties": {"Type": "Hutan non mangrove"}, "geometry": {"type": "Polygon", "coordinates": [[[112.486554, -7.928348], [112.489839, -7.94487], [112.50272, -7.942509], [112.500273, -7.926881], [112.486554, -7.928348]]]}}, {"type": "Feature", "properties": {"Type": "Hutan non mangrove"}, "geometry": {"type": "Polygon", "coordinates": [[[112.499535, -7.907978], [112.500437, -7.924053], [112.507973, -7.923543], [112.505847, -7.908041], [112.499535, -7.907978]]]}}, {"type": "Feature", "properties": {"Type": "Hutan non mangrove"}, "geometry": {"type": "Polygon", "coordinates": [[[112.501312, -7.927291], [112.503953, -7.942026], [112.512583, -7.939858], [112.509105, -7.926589], [112.501312, -7.927291]]]}}, {"type": "Feature", "properties": {"Type": "Hutan non mangrove"}, "geometry": {"type": "Polygon", "coordinates": [[[112.409859, -7.910204], [112.408571, -7.922452], [112.421517, -7.920156], [112.42171, -7.91569], [112.420422, -7.911033], [112.409859, -7.910204]]]}}, {"type": "Feature", "properties": {"Type": "Hutan non mangrove"}, "geometry": {"type": "Polygon", "coordinates": [[[112.432545, -7.912765], [112.423069, -7.916014], [112.424461, -7.923693], [112.432744, -7.923201], [112.432612, -7.91818], [112.434202, -7.918508], [112.43629, -7.916112], [112.436356, -7.913848], [112.432545, -7.912765]]]}}, {"type": "Feature", "properties": {"Type": "Hutan non mangrove"}, "geometry": {"type": "Polygon", "coordinates": [[[112.407771, -7.923982], [112.407105, -7.935856], [112.423376, -7.93105], [112.420902, -7.921909], [112.407771, -7.923982]]]}}, {"type": "Feature", "properties": {"Type": "Hutan non mangrove"}, "geometry": {"type": "Polygon", "coordinates": [[[112.424453, -7.924696], [112.425691, -7.935305], [112.434908, -7.931924], [112.432988, -7.924316], [112.424453, -7.924696]]]}}, {"type": "Feature", "properties": {"Type": "Hutan non mangrove"}, "geometry": {"type": "Polygon", "coordinates": [[[112.435378, -7.932262], [112.425776, -7.936953], [112.428251, -7.946293], [112.438877, -7.944138], [112.435378, -7.932262]]]}}, {"type": "Feature", "properties": {"Type": "Hutan non mangrove"}, "geometry": {"type": "Polygon", "coordinates": [[[112.435895, -7.932218], [112.439266, -7.942953], [112.443704, -7.942488], [112.446136, -7.940248], [112.446477, -7.931457], [112.440162, -7.931922], [112.435895, -7.932218]]]}}, {"type": "Feature", "properties": {"Type": "Hutan non mangrove"}, "geometry": {"type": "Polygon", "coordinates": [[[112.483673, -7.866653], [112.480732, -7.865548], [112.4784, -7.871207], [112.483697, -7.872496], [112.483673, -7.866653]]]}}, {"type": "Feature", "properties": {"Type": "Hutan non mangrove"}, "geometry": {"type": "Polygon", "coordinates": [[[112.488347, -7.858245], [112.492155, -7.862045], [112.496771, -7.860616], [112.493771, -7.854844], [112.488347, -7.858245]]]}}, {"type": "Feature", "properties": {"Type": "Hutan non mangrove"}, "geometry": {"type": "Polygon", "coordinates": [[[112.497885, -7.849391], [112.497068, -7.850808], [112.497068, -7.852865], [112.497391, -7.853691], [112.499128, -7.853624], [112.499519, -7.853236], [112.50037, -7.852325], [112.500251, -7.851398], [112.499826, -7.851314], [112.499128, -7.851314], [112.498957, -7.851263], [112.497885, -7.849391]]]}}, {"type": "Feature", "properties": {"Type": "Hutan non mangrove"}, "geometry": {"type": "Polygon", "coordinates": [[[112.500524, -7.852427], [112.49923, -7.85418], [112.500949, -7.856255], [112.502839, -7.856052], [112.503724, -7.854922], [112.504643, -7.853674], [112.505205, -7.851651], [112.503162, -7.850083], [112.501153, -7.849897], [112.500524, -7.852427]]]}}, {"type": "Feature", "properties": {"Type": "Hutan non mangrove"}, "geometry": {"type": "Polygon", "coordinates": [[[112.505584, -7.851808], [112.503769, -7.855617], [112.504914, -7.857093], [112.507009, -7.856751], [112.50796, -7.856494], [112.509191, -7.856965], [112.509947, -7.857607], [112.511114, -7.858142], [112.511978, -7.85643], [112.511395, -7.854076], [112.511027, -7.85245], [112.51254, -7.852214], [112.505584, -7.851808]]]}}, {"type": "Feature", "properties": {"Type": "Hutan non mangrove"}, "geometry": {"type": "Polygon", "coordinates": [[[112.480896, -7.801462], [112.482518, -7.812125], [112.493767, -7.811857], [112.490847, -7.79948], [112.480896, -7.801462]]]}}, {"type": "Feature", "properties": {"Type": "Hutan non mangrove"}, "geometry": {"type": "Polygon", "coordinates": [[[112.465067, -7.766918], [112.470234, -7.791424], [112.481659, -7.787624], [112.487331, -7.792137], [112.49628, -7.796649], [112.513058, -7.78517], [112.495127, -7.757928], [112.465067, -7.766918]]]}}, {"type": "Feature", "properties": {"Type": "Hutan non mangrove"}, "geometry": {"type": "Polygon", "coordinates": [[[112.497808, -7.753114], [112.507797, -7.766585], [112.515361, -7.777539], [112.519, -7.778093], [112.52112, -7.774419], [112.522327, -7.760077], [112.510636, -7.744389], [112.497808, -7.753114]]]}}, {"type": "Feature", "properties": {"Type": "Hutan non mangrove"}, "geometry": {"type": "Polygon", "coordinates": [[[112.453658, -7.738044], [112.452812, -7.761725], [112.481682, -7.759734], [112.477135, -7.738987], [112.453658, -7.738044]]]}}, {"type": "Feature", "properties": {"Type": "Hutan non mangrove"}, "geometry": {"type": "Polygon", "coordinates": [[[112.479185, -7.738592], [112.484261, -7.757662], [112.497057, -7.756091], [112.493355, -7.735867], [112.479185, -7.738592]]]}}, {"type": "Feature", "properties": {"Type": "Hutan non mangrove"}, "geometry": {"type": "Polygon", "coordinates": [[[112.389826, -7.830538], [112.391394, -7.858302], [112.411399, -7.854832], [112.410569, -7.831908], [112.389826, -7.830538]]]}}, {"type": "Feature", "properties": {"Type": "Hutan non mangrove"}, "geometry": {"type": "Polygon", "coordinates": [[[112.412525, -7.831972], [112.412328, -7.851792], [112.430629, -7.846073], [112.426398, -7.836944], [112.425414, -7.835676], [112.423774, -7.833434], [112.422922, -7.83259], [112.422692, -7.830673], [112.412525, -7.831972]]]}}, {"type": "Feature", "properties": {"Type": "Hutan non mangrove"}, "geometry": {"type": "Polygon", "coordinates": [[[112.412921, -7.853052], [112.415366, -7.862742], [112.43343, -7.856576], [112.430706, -7.847051], [112.412921, -7.853052]]]}}, {"type": "Feature", "properties": {"Type": "Hutan non mangrove"}, "geometry": {"type": "Polygon", "coordinates": [[[112.391523, -7.859053], [112.391245, -7.871331], [112.413977, -7.86599], [112.411643, -7.855915], [112.391523, -7.859053]]]}}, {"type": "Feature", "properties": {"Type": "Hutan non mangrove"}, "geometry": {"type": "Polygon", "coordinates": [[[112.428472, -7.947855], [112.428917, -7.96013], [112.44409, -7.958368], [112.439199, -7.945047], [112.428472, -7.947855]]]}}, {"type": "Feature", "properties": {"Type": "Hutan non mangrove"}, "geometry": {"type": "Polygon", "coordinates": [[[112.440141, -7.944932], [112.4455, -7.960139], [112.450062, -7.959645], [112.451533, -7.959226], [112.453676, -7.959201], [112.453876, -7.95656], [112.453851, -7.95419], [112.454324, -7.950388], [112.454299, -7.94945], [112.453552, -7.94866], [112.447819, -7.946636], [112.446049, -7.946191], [112.445102, -7.945747], [112.442759, -7.9455], [112.440141, -7.944932]]]}}, {"type": "Feature", "properties": {"Type": "Hutan non mangrove"}, "geometry": {"type": "Polygon", "coordinates": [[[112.433924, -7.960156], [112.437641, -7.969302], [112.446791, -7.967037], [112.443732, -7.958967], [112.433924, -7.960156]]]}}, {"type": "Feature", "properties": {"Type": "Hutan non mangrove"}, "geometry": {"type": "Polygon", "coordinates": [[[112.445447, -7.962053], [112.448564, -7.969019], [112.453539, -7.966754], [112.451452, -7.961487], [112.450479, -7.960128], [112.44722, -7.960298], [112.446934, -7.960694], [112.445447, -7.962053]]]}}, {"type": "Feature", "properties": {"Type": "Hutan non mangrove"}, "geometry": {"type": "Polygon", "coordinates": [[[112.453866, -7.967139], [112.442816, -7.972259], [112.443622, -7.98123], [112.445377, -7.987007], [112.451922, -7.991845], [112.460696, -7.996212], [112.479098, -7.995226], [112.489579, -7.969957], [112.453866, -7.967139]]]}}, {"type": "Feature", "properties": {"Type": "Hutan non mangrove"}, "geometry": {"type": "Polygon", "coordinates": [[[112.492872, -7.970579], [112.481955, -7.993643], [112.490568, -7.997728], [112.507429, -7.969858], [112.492872, -7.970579]]]}}, {"type": "Feature", "properties": {"Type": "Hutan non mangrove"}, "geometry": {"type": "Polygon", "coordinates": [[[112.262652, -7.899467], [112.277906, -7.919972], [112.29316, -7.924289], [112.30392, -7.922131], [112.320263, -7.908506], [112.333202, -7.891103], [112.321762, -7.875993], [112.321762, -7.875993], [112.262652, -7.899467]]]}}, {"type": "Feature", "properties": {"Type": "Hutan non mangrove"}, "geometry": {"type": "Polygon", "coordinates": [[[112.33293, -7.893666], [112.327891, -7.910934], [112.317267, -7.920782], [112.347231, -7.936969], [112.349432, -7.913115], [112.33293, -7.893666]]]}}, {"type": "Feature", "properties": {"Type": "Hutan non mangrove"}, "geometry": {"type": "Polygon", "coordinates": [[[112.322022, -7.927513], [112.2978, -7.956834], [112.317053, -7.958781], [112.343448, -7.955706], [112.348417, -7.938996], [112.322022, -7.927513]]]}}, {"type": "Feature", "properties": {"Type": "Hutan non mangrove"}, "geometry": {"type": "Polygon", "coordinates": [[[112.252016, -7.923191], [112.258285, -7.926216], [112.272511, -7.931151], [112.282718, -7.93529], [112.289067, -7.927967], [112.28537, -7.924544], [112.257642, -7.914753], [112.252016, -7.923191]]]}}, {"type": "Feature", "properties": {"Type": "Hutan non mangrove"}, "geometry": {"type": "Polygon", "coordinates": [[[112.27544, -7.946027], [112.297449, -7.948225], [112.297637, -7.935706], [112.289849, -7.929036], [112.285636, -7.935855], [112.282363, -7.935818], [112.273522, -7.933023], [112.27544, -7.946027]]]}}, {"type": "Feature", "properties": {"Type": "Hutan non mangrove"}, "geometry": {"type": "Polygon", "coordinates": [[[111.927842, -8.180633], [111.93061, -8.190667], [111.937448, -8.192843], [111.945579, -8.192891], [111.954291, -8.19073], [111.927842, -8.180633]]]}}, {"type": "Feature", "properties": {"Type": "Hutan non mangrove"}, "geometry": {"type": "Polygon", "coordinates": [[[111.75077, -7.880987], [111.819494, -7.898451], [111.814277, -7.845344], [111.767861, -7.835898], [111.75077, -7.880987]]]}}, {"type": "Feature", "properties": {"Type": "Hutan non mangrove"}, "geometry": {"type": "Polygon", "coordinates": [[[111.755807, -7.765671], [111.698237, -7.752836], [111.698237, -7.786348], [111.721805, -7.817362], [111.762104, -7.827343], [111.833527, -7.841602], [111.840183, -7.787061], [111.755807, -7.765671]]]}}, {"type": "Feature", "properties": {"Type": "Hutan non mangrove"}, "geometry": {"type": "Polygon", "coordinates": [[[111.688753, -7.747392], [111.634618, -7.755798], [111.66714, -7.810436], [111.701075, -7.805032], [111.688753, -7.747392]]]}}, {"type": "Feature", "properties": {"Type": "Hutan non mangrove"}, "geometry": {"type": "Polygon", "coordinates": [[[111.708347, -7.810035], [111.691783, -7.840253], [111.742954, -7.859061], [111.753644, -7.846766], [111.757268, -7.832766], [111.731449, -7.828458], [111.713784, -7.81329], [111.708347, -7.810035]]]}}, {"type": "Feature", "properties": {"Type": "Hutan non mangrove"}, "geometry": {"type": "Polygon", "coordinates": [[[111.205124, -7.637028], [111.226751, -7.650816], [111.24382, -7.637375], [111.243235, -7.623123], [111.209216, -7.617677], [111.205124, -7.637028]]]}}], "crs": {"type": "name", "properties": {"name": "urn:ogc:def:crs:OGC:1.3:CRS84"}}}