{"type": "FeatureCollection", "name": "Hutan_mangrove", "features": [{"type": "Feature", "properties": {"Type": "Hutan mangrove"}, "geometry": {"type": "Polygon", "coordinates": [[[113.513253, -7.242751], [113.512728, -7.244432], [113.5145, -7.245223], [113.514596, -7.244797], [113.514591, -7.244472], [113.514723, -7.244073], [113.514657, -7.243609], [113.514505, -7.243301], [113.514321, -7.243054], [113.513945, -7.242862], [113.513741, -7.242711], [113.513533, -7.24264], [113.513431, -7.24263], [113.513253, -7.242751]]]}}, {"type": "Feature", "properties": {"Type": "Hutan mangrove"}, "geometry": {"type": "Polygon", "coordinates": [[[113.524805, -7.245227], [113.528126, -7.242171], [113.526966, -7.242353], [113.525243, -7.242521], [113.525228, -7.242825], [113.524805, -7.245227]]]}}, {"type": "Feature", "properties": {"Type": "Hutan mangrove"}, "geometry": {"type": "Polygon", "coordinates": [[[113.513266, -7.241678], [113.514236, -7.242437], [113.514451, -7.242407], [113.5146, -7.241985], [113.51437, -7.241743], [113.513863, -7.241641], [113.513266, -7.241678]]]}}, {"type": "Feature", "properties": {"Type": "Hutan mangrove"}, "geometry": {"type": "Polygon", "coordinates": [[[113.514487, -7.241585], [113.515144, -7.241778], [113.515777, -7.241231], [113.515167, -7.240908], [113.514487, -7.241585]]]}}, {"type": "Feature", "properties": {"Type": "Hutan mangrove"}, "geometry": {"type": "Polygon", "coordinates": [[[112.834303, -7.318331], [112.835784, -7.319718], [112.83599, -7.320071], [112.836509, -7.320719], [112.836715, -7.321023], [112.83722, -7.321185], [112.837582, -7.321418], [112.837888, -7.321721], [112.838144, -7.321707], [112.838379, -7.321425], [112.838493, -7.321425], [112.838784, -7.321566], [112.839104, -7.321432], [112.839751, -7.320868], [112.840027, -7.318965], [112.83923, -7.318472], [112.839124, -7.318831], [112.837353, -7.318902], [112.83655, -7.318486], [112.836969, -7.317957], [112.836606, -7.317766], [112.836251, -7.318634], [112.835327, -7.318288], [112.835376, -7.318041], [112.83453, -7.317851], [112.834303, -7.318331]]]}}, {"type": "Feature", "properties": {"Type": "Hutan mangrove"}, "geometry": {"type": "Polygon", "coordinates": [[[112.834792, -7.332788], [112.834834, -7.33293], [112.834834, -7.333071], [112.834919, -7.333339], [112.83512, -7.333842], [112.835352, -7.334031], [112.835728, -7.334204], [112.836236, -7.334477], [112.836543, -7.334587], [112.836696, -7.334593], [112.837199, -7.332688], [112.837659, -7.332814], [112.838512, -7.330607], [112.83874, -7.330523], [112.839073, -7.330712], [112.839819, -7.331005], [112.84011, -7.331063], [112.840718, -7.331289], [112.841046, -7.331394], [112.840872, -7.331042], [112.840872, -7.330984], [112.841035, -7.330958], [112.841035, -7.330869], [112.84066, -7.33056], [112.840469, -7.330481], [112.840205, -7.330481], [112.83984, -7.330413], [112.839607, -7.330397], [112.83939, -7.330397], [112.839322, -7.330397], [112.83929, -7.330308], [112.839115, -7.330224], [112.838957, -7.330224], [112.838824, -7.330171], [112.834792, -7.332788]]]}}, {"type": "Feature", "properties": {"Type": "Hutan mangrove"}, "geometry": {"type": "Polygon", "coordinates": [[[112.839559, -7.318591], [112.840466, -7.318639], [112.841319, -7.318885], [112.841327, -7.318705], [112.841087, -7.318598], [112.840955, -7.318433], [112.840863, -7.318211], [112.841153, -7.318031], [112.84151, -7.317628], [112.842305, -7.317036], [112.842289, -7.316502], [112.841883, -7.316099], [112.841568, -7.315984], [112.841286, -7.317406], [112.841129, -7.317455], [112.84059, -7.317299], [112.8403, -7.317299], [112.840159, -7.317628], [112.840134, -7.317743], [112.839559, -7.318591]]]}}, {"type": "Feature", "properties": {"Type": "Hutan mangrove"}, "geometry": {"type": "Polygon", "coordinates": [[[112.835207, -7.334209], [112.835307, -7.334115], [112.835112, -7.333943], [112.834965, -7.333698], [112.834923, -7.3335], [112.834791, -7.333255], [112.834681, -7.33314], [112.834549, -7.333041], [112.834391, -7.333197], [112.834418, -7.333396], [112.834607, -7.333536], [112.834786, -7.333792], [112.834775, -7.333959], [112.835207, -7.334209]]]}}, {"type": "Feature", "properties": {"Type": "Hutan mangrove"}, "geometry": {"type": "Polygon", "coordinates": [[[112.835334, -7.334116], [112.835318, -7.33421], [112.835413, -7.334315], [112.836102, -7.334586], [112.836397, -7.334779], [112.836491, -7.334638], [112.835334, -7.334116]]]}}, {"type": "Feature", "properties": {"Type": "Hutan mangrove"}, "geometry": {"type": "Polygon", "coordinates": [[[112.836793, -7.345986], [112.838021, -7.346189], [112.838456, -7.345554], [112.839352, -7.34426], [112.839659, -7.342584], [112.839045, -7.341924], [112.839531, -7.341366], [112.83902, -7.340147], [112.837996, -7.340147], [112.837561, -7.340401], [112.836793, -7.345986]]]}}, {"type": "Feature", "properties": {"Type": "Hutan mangrove"}, "geometry": {"type": "Polygon", "coordinates": [[[112.834373, -7.344151], [112.836422, -7.34438], [112.836373, -7.344195], [112.83616, -7.344006], [112.836243, -7.343832], [112.836325, -7.343721], [112.836373, -7.343447], [112.834325, -7.342626], [112.833996, -7.343788], [112.83406, -7.34401], [112.834373, -7.344151]]]}}, {"type": "Feature", "properties": {"Type": "Hutan mangrove"}, "geometry": {"type": "Polygon", "coordinates": [[[112.834463, -7.344184], [112.836425, -7.345316], [112.836425, -7.345316], [112.836545, -7.345276], [112.836444, -7.344991], [112.836414, -7.344399], [112.834463, -7.344184]]]}}, {"type": "Feature", "properties": {"Type": "Hutan mangrove"}, "geometry": {"type": "Polygon", "coordinates": [[[112.834642, -7.344491], [112.834504, -7.345231], [112.835989, -7.345797], [112.836153, -7.345224], [112.834642, -7.344491]]]}}, {"type": "Feature", "properties": {"Type": "Hutan mangrove"}, "geometry": {"type": "Polygon", "coordinates": [[[112.834494, -7.345312], [112.8343, -7.346377], [112.835699, -7.346562], [112.835968, -7.345904], [112.834494, -7.345312]]]}}, {"type": "Feature", "properties": {"Type": "Hutan mangrove"}, "geometry": {"type": "Polygon", "coordinates": [[[112.83693, -7.341831], [112.836556, -7.345074], [112.836827, -7.345046], [112.837266, -7.341943], [112.83693, -7.341831]]]}}, {"type": "Feature", "properties": {"Type": "Hutan mangrove"}, "geometry": {"type": "Polygon", "coordinates": [[[112.83607, -7.345622], [112.836006, -7.346461], [112.836828, -7.346417], [112.83675, -7.346062], [112.836728, -7.345688], [112.836647, -7.3456], [112.836403, -7.345594], [112.836339, -7.345666], [112.83607, -7.345622]]]}}, {"type": "Feature", "properties": {"Type": "Hutan mangrove"}, "geometry": {"type": "Polygon", "coordinates": [[[112.836872, -7.346164], [112.837059, -7.347424], [112.838175, -7.346971], [112.837841, -7.346317], [112.836872, -7.346164]]]}}, {"type": "Feature", "properties": {"Type": "Hutan mangrove"}, "geometry": {"type": "Polygon", "coordinates": [[[112.834225, -7.346471], [112.833753, -7.348167], [112.836872, -7.347973], [112.836709, -7.346713], [112.834225, -7.346471]]]}}, {"type": "Feature", "properties": {"Type": "Hutan mangrove"}, "geometry": {"type": "Polygon", "coordinates": [[[112.837054, -7.347558], [112.837738, -7.348559], [112.83821, -7.347873], [112.838536, -7.347372], [112.838178, -7.347129], [112.837054, -7.347558]]]}}, {"type": "Feature", "properties": {"Type": "Hutan mangrove"}, "geometry": {"type": "Polygon", "coordinates": [[[112.836648, -7.348135], [112.836517, -7.349137], [112.836737, -7.349266], [112.83712, -7.349573], [112.837438, -7.349654], [112.838008, -7.34921], [112.837959, -7.348749], [112.837666, -7.348685], [112.837389, -7.348305], [112.837136, -7.348063], [112.836648, -7.348135]]]}}, {"type": "Feature", "properties": {"Type": "Hutan mangrove"}, "geometry": {"type": "Polygon", "coordinates": [[[112.833642, -7.348411], [112.833477, -7.349128], [112.836361, -7.349246], [112.836535, -7.348111], [112.835208, -7.348157], [112.834228, -7.348211], [112.833715, -7.348248], [112.833642, -7.348411]]]}}, {"type": "Feature", "properties": {"Type": "Hutan mangrove"}, "geometry": {"type": "Polygon", "coordinates": [[[112.833409, -7.349235], [112.833162, -7.350198], [112.837685, -7.350361], [112.838024, -7.350352], [112.837575, -7.349807], [112.837154, -7.349826], [112.83655, -7.349272], [112.83633, -7.349353], [112.833409, -7.349235]]]}}, {"type": "Feature", "properties": {"Type": "Hutan mangrove"}, "geometry": {"type": "Polygon", "coordinates": [[[112.833139, -7.350274], [112.83311, -7.350512], [112.834083, -7.350591], [112.834156, -7.350843], [112.834737, -7.351038], [112.836095, -7.35116], [112.836327, -7.350418], [112.833139, -7.350274]]]}}, {"type": "Feature", "properties": {"Type": "Hutan mangrove"}, "geometry": {"type": "Polygon", "coordinates": [[[112.836435, -7.35044], [112.83605, -7.351557], [112.837212, -7.352003], [112.837859, -7.352306], [112.838047, -7.351946], [112.838389, -7.3508], [112.837938, -7.35062], [112.837437, -7.350411], [112.836435, -7.35044]]]}}, {"type": "Feature", "properties": {"Type": "Hutan mangrove"}, "geometry": {"type": "Polygon", "coordinates": [[[112.834081, -7.350919], [112.833885, -7.351689], [112.835758, -7.351884], [112.835976, -7.35125], [112.834996, -7.351156], [112.83432, -7.351041], [112.834081, -7.350919]]]}}, {"type": "Feature", "properties": {"Type": "Hutan mangrove"}, "geometry": {"type": "Polygon", "coordinates": [[[112.835998, -7.351653], [112.835766, -7.352258], [112.836899, -7.352467], [112.836892, -7.351985], [112.835998, -7.351653]]]}}, {"type": "Feature", "properties": {"Type": "Hutan mangrove"}, "geometry": {"type": "Polygon", "coordinates": [[[112.837786, -7.352599], [112.83732, -7.352719], [112.837252, -7.35333], [112.837382, -7.353697], [112.838027, -7.353855], [112.838157, -7.35374], [112.838181, -7.353497], [112.837979, -7.353287], [112.838094, -7.353172], [112.838133, -7.353067], [112.838046, -7.3529], [112.837926, -7.352886], [112.837887, -7.352852], [112.837733, -7.352829], [112.837897, -7.352743], [112.837926, -7.352704], [112.837786, -7.352599]]]}}, {"type": "Feature", "properties": {"Type": "Hutan mangrove"}, "geometry": {"type": "Polygon", "coordinates": [[[112.835731, -7.352344], [112.835188, -7.353825], [112.836762, -7.354254], [112.83683, -7.354175], [112.836972, -7.354164], [112.837035, -7.354164], [112.83712, -7.354226], [112.837299, -7.354279], [112.837449, -7.354054], [112.83739, -7.353924], [112.837216, -7.353817], [112.837205, -7.353589], [112.837029, -7.353527], [112.836952, -7.353488], [112.836972, -7.353417], [112.836844, -7.353367], [112.836683, -7.353178], [112.836813, -7.353141], [112.836907, -7.353141], [112.837029, -7.353234], [112.837123, -7.353324], [112.837185, -7.353293], [112.837131, -7.353048], [112.837168, -7.352986], [112.837253, -7.35277], [112.83704, -7.352708], [112.836961, -7.352747], [112.836643, -7.35282], [112.836396, -7.352722], [112.836186, -7.352643], [112.836103, -7.352536], [112.836208, -7.352398], [112.835731, -7.352344]]]}}, {"type": "Feature", "properties": {"Type": "Hutan mangrove"}, "geometry": {"type": "Polygon", "coordinates": [[[112.833277, -7.35622], [112.832783, -7.356148], [112.832591, -7.355826], [112.832314, -7.355491], [112.832121, -7.35524], [112.831904, -7.354786], [112.831796, -7.35426], [112.832331, -7.351931], [112.832636, -7.351775], [112.832752, -7.351546], [112.833665, -7.351619], [112.833739, -7.351827], [112.835577, -7.352015], [112.834253, -7.356793], [112.833964, -7.356674], [112.833663, -7.356507], [112.83347, -7.356184], [112.833542, -7.355658], [112.833687, -7.355168], [112.83379483389187, -7.35445310123534], [112.833277, -7.35622]], [[112.833988, -7.353794], [112.833795, -7.354452], [112.83379483389187, -7.35445310123534], [112.833988, -7.353794]]]}}, {"type": "Feature", "properties": {"Type": "Hutan mangrove"}, "geometry": {"type": "Polygon", "coordinates": [[[112.835143, -7.3539], [112.834911, -7.354801], [112.836514, -7.355018], [112.836765, -7.354326], [112.836147, -7.354156], [112.835143, -7.3539]]]}}, {"type": "Feature", "properties": {"Type": "Hutan mangrove"}, "geometry": {"type": "Polygon", "coordinates": [[[112.834357, -7.356978], [112.834742, -7.357117], [112.835773, -7.3574], [112.835922, -7.357005], [112.834439, -7.356602], [112.834357, -7.356978]]]}}, {"type": "Feature", "properties": {"Type": "Hutan mangrove"}, "geometry": {"type": "Polygon", "coordinates": [[[112.834484, -7.356534], [112.835953, -7.356974], [112.836076, -7.356714], [112.83599, -7.356561], [112.836062, -7.356328], [112.835646, -7.356108], [112.835289, -7.35601], [112.834954, -7.355898], [112.834597, -7.355812], [112.834484, -7.356534]]]}}, {"type": "Feature", "properties": {"Type": "Hutan mangrove"}, "geometry": {"type": "Polygon", "coordinates": [[[112.834671, -7.35576], [112.835965, -7.356119], [112.836028, -7.355984], [112.835711, -7.355841], [112.835779, -7.355644], [112.835748, -7.35546], [112.835445, -7.35524], [112.83549, -7.355007], [112.834879, -7.354841], [112.834671, -7.35576]]]}}, {"type": "Feature", "properties": {"Type": "Hutan mangrove"}, "geometry": {"type": "Polygon", "coordinates": [[[112.835947, -7.357581], [112.836012, -7.3576], [112.836172, -7.357549], [112.836272, -7.35744], [112.836521, -7.357521], [112.836726, -7.357556], [112.836968, -7.357616], [112.837028, -7.357542], [112.837012, -7.357486], [112.836856, -7.357473], [112.836714, -7.357417], [112.836535, -7.35736], [112.836426, -7.357346], [112.836282, -7.357316], [112.836254, -7.357258], [112.836179, -7.357189], [112.836154, -7.357094], [112.836077, -7.357062], [112.836058, -7.357069], [112.835947, -7.357581]]]}}, {"type": "Feature", "properties": {"Type": "Hutan mangrove"}, "geometry": {"type": "Polygon", "coordinates": [[[112.831591, -7.354642], [112.831336, -7.35603], [112.831382, -7.356147], [112.83199, -7.356218], [112.832422, -7.356179], [112.83269, -7.356179], [112.831591, -7.354642]]]}}, {"type": "Feature", "properties": {"Type": "Hutan mangrove"}, "geometry": {"type": "Polygon", "coordinates": [[[112.831339, -7.356214], [112.831221, -7.357459], [112.831398, -7.357576], [112.83181, -7.357576], [112.832143, -7.35729], [112.832437, -7.356972], [112.832647, -7.35694], [112.833039, -7.35694], [112.833922, -7.357044], [112.833987, -7.356953], [112.832705, -7.356201], [112.831339, -7.356214]]]}}, {"type": "Feature", "properties": {"Type": "Hutan mangrove"}, "geometry": {"type": "Polygon", "coordinates": [[[112.832327, -7.357553], [112.834045, -7.357773], [112.834129, -7.357531], [112.834244, -7.357066], [112.834164, -7.356948], [112.833996, -7.357057], [112.833744, -7.357136], [112.833522, -7.357088], [112.833221, -7.357005], [112.832571, -7.356996], [112.832411, -7.357044], [112.832327, -7.357553]]]}}, {"type": "Feature", "properties": {"Type": "Hutan mangrove"}, "geometry": {"type": "Polygon", "coordinates": [[[112.834284, -7.357171], [112.834146, -7.358304], [112.835226, -7.358594], [112.835448, -7.358348], [112.835558, -7.357979], [112.835629, -7.357755], [112.835735, -7.35761], [112.835784, -7.357488], [112.835664, -7.35743], [112.834284, -7.357171]]]}}, {"type": "Feature", "properties": {"Type": "Hutan mangrove"}, "geometry": {"type": "Polygon", "coordinates": [[[112.833743, -7.377132], [112.835858, -7.37751], [112.836009, -7.377053], [112.833838, -7.376649], [112.833743, -7.377132]]]}}, {"type": "Feature", "properties": {"Type": "Hutan mangrove"}, "geometry": {"type": "Polygon", "coordinates": [[[112.830827, -7.384188], [112.830392, -7.385481], [112.830292, -7.388831], [112.83571, -7.389047], [112.836078, -7.388185], [112.836295, -7.386592], [112.83581, -7.385597], [112.835275, -7.384702], [112.834138, -7.384055], [112.83285, -7.383922], [112.830827, -7.384188]]]}}, {"type": "Feature", "properties": {"Type": "Hutan mangrove"}, "geometry": {"type": "Polygon", "coordinates": [[[112.695128, -7.139734], [112.696207, -7.140261], [112.696437, -7.139636], [112.695424, -7.139202], [112.695128, -7.139734]]]}}, {"type": "Feature", "properties": {"Type": "Hutan mangrove"}, "geometry": {"type": "Polygon", "coordinates": [[[112.696689, -7.140651], [112.696569, -7.141047], [112.697653, -7.141574], [112.697708, -7.141493], [112.69768, -7.141036], [112.696689, -7.140651]]]}}, {"type": "Feature", "properties": {"Type": "Hutan mangrove"}, "geometry": {"type": "Polygon", "coordinates": [[[112.693828, -7.1422], [112.693564, -7.142868], [112.695759, -7.143792], [112.696024, -7.143048], [112.693828, -7.1422]]]}}, {"type": "Feature", "properties": {"Type": "Hutan mangrove"}, "geometry": {"type": "Polygon", "coordinates": [[[112.693506, -7.142984], [112.693128, -7.14387], [112.695134, -7.144772], [112.69524, -7.144561], [112.695444, -7.144096], [112.695603, -7.143818], [112.693506, -7.142984]]]}}, {"type": "Feature", "properties": {"Type": "Hutan mangrove"}, "geometry": {"type": "Polygon", "coordinates": [[[112.693034, -7.143988], [112.693291, -7.144769], [112.694253, -7.145566], [112.694601, -7.144679], [112.693034, -7.143988]]]}}, {"type": "Feature", "properties": {"Type": "Hutan mangrove"}, "geometry": {"type": "Polygon", "coordinates": [[[112.69286, -7.145168], [112.692565, -7.146061], [112.693844, -7.146565], [112.694086, -7.145791], [112.69286, -7.145168]]]}}, {"type": "Feature", "properties": {"Type": "Hutan mangrove"}, "geometry": {"type": "Polygon", "coordinates": [[[112.691956, -7.147229], [112.691849, -7.148552], [112.691682, -7.149194], [112.692783, -7.149773], [112.693899, -7.147852], [112.691956, -7.147229]]]}}, {"type": "Feature", "properties": {"Type": "Hutan mangrove"}, "geometry": {"type": "Polygon", "coordinates": [[[112.693718, -7.148515], [112.692972, -7.149666], [112.693009, -7.149681], [112.692972, -7.149681], [112.694804, -7.150568], [112.695528, -7.149497], [112.693718, -7.148515]]]}}, {"type": "Feature", "properties": {"Type": "Hutan mangrove"}, "geometry": {"type": "Polygon", "coordinates": [[[112.695108, -7.140773], [112.694495, -7.141829], [112.694319, -7.142165], [112.694294, -7.142202], [112.695258, -7.142699], [112.695421, -7.142413], [112.695834, -7.142438], [112.696135, -7.141556], [112.695959, -7.140898], [112.695108, -7.140773]]]}}, {"type": "Feature", "properties": {"Type": "Hutan mangrove"}, "geometry": {"type": "Polygon", "coordinates": [[[112.691619, -7.151579], [112.692049, -7.151698], [112.692319, -7.151214], [112.692473, -7.150816], [112.6926, -7.150457], [112.692818, -7.150548], [112.693369, -7.150816], [112.693478, -7.150565], [112.69369, -7.150161], [112.693265, -7.149973], [112.692829, -7.149831], [112.692164, -7.149558], [112.69198, -7.149546], [112.691934, -7.149728], [112.691888, -7.150042], [112.691946, -7.15023], [112.691848, -7.150446], [112.691756, -7.150634], [112.691733, -7.15089], [112.691601, -7.150958], [112.691527, -7.151266], [112.691619, -7.151579]]]}}], "crs": {"type": "name", "properties": {"name": "urn:ogc:def:crs:OGC:1.3:CRS84"}}}