{"type": "FeatureCollection", "name": "Pemukiman", "features": [{"type": "Feature", "properties": {"Type": "Pemukiman"}, "geometry": {"type": "Polygon", "coordinates": [[[112.560796, -7.061427], [112.560664, -7.061643], [112.560765, -7.061709], [112.560809, -7.061741], [112.560756, -7.061836], [112.560866, -7.061891], [112.561093, -7.061541], [112.560796, -7.061427]]]}}, {"type": "Feature", "properties": {"Type": "Pemukiman"}, "geometry": {"type": "Polygon", "coordinates": [[[112.560568, -7.061247], [112.562087, -7.061765], [112.562778, -7.059994], [112.561498, -7.059682], [112.560568, -7.061247]]]}}, {"type": "Feature", "properties": {"Type": "Pemukiman"}, "geometry": {"type": "Polygon", "coordinates": [[[112.560255, -7.059329], [112.560242, -7.059497], [112.561289, -7.059575], [112.561398, -7.059073], [112.560457, -7.058856], [112.560255, -7.059329]]]}}, {"type": "Feature", "properties": {"Type": "Pemukiman"}, "geometry": {"type": "Polygon", "coordinates": [[[112.559694, -7.058553], [112.55936, -7.059219], [112.559369, -7.059219], [112.560102, -7.059498], [112.560378, -7.058869], [112.559694, -7.058553]]]}}, {"type": "Feature", "properties": {"Type": "Pemukiman"}, "geometry": {"type": "Polygon", "coordinates": [[[112.559347, -7.057756], [112.55973, -7.057996], [112.559827, -7.057875], [112.559427, -7.057655], [112.559347, -7.057756]]]}}, {"type": "Feature", "properties": {"Type": "Pemukiman"}, "geometry": {"type": "Polygon", "coordinates": [[[112.559594, -7.057582], [112.559754, -7.057781], [112.559797, -7.057774], [112.559875, -7.057676], [112.559867, -7.057567], [112.559766, -7.057445], [112.559684, -7.057473], [112.559594, -7.057582]]]}}, {"type": "Feature", "properties": {"Type": "Pemukiman"}, "geometry": {"type": "Polygon", "coordinates": [[[112.559966, -7.057712], [112.559922, -7.057816], [112.559942, -7.057901], [112.560003, -7.057934], [112.560063, -7.057865], [112.560058, -7.057786], [112.559966, -7.057712]]]}}, {"type": "Feature", "properties": {"Type": "Pemukiman"}, "geometry": {"type": "Polygon", "coordinates": [[[112.561619, -7.059582], [112.561812, -7.059672], [112.561985, -7.059314], [112.561779, -7.059228], [112.561619, -7.059582]]]}}, {"type": "Feature", "properties": {"Type": "Pemukiman"}, "geometry": {"type": "Polygon", "coordinates": [[[112.561912, -7.059538], [112.561826, -7.059691], [112.562482, -7.059892], [112.562529, -7.059698], [112.561912, -7.059538]]]}}, {"type": "Feature", "properties": {"Type": "Pemukiman"}, "geometry": {"type": "Polygon", "coordinates": [[[112.562645, -7.059631], [112.562541, -7.05989], [112.562682, -7.059945], [112.562763, -7.059661], [112.562645, -7.059631]]]}}, {"type": "Feature", "properties": {"Type": "Pemukiman"}, "geometry": {"type": "Polygon", "coordinates": [[[112.562948, -7.059753], [112.562844, -7.059939], [112.563462, -7.060211], [112.563539, -7.060023], [112.563361, -7.059879], [112.562948, -7.059753]]]}}, {"type": "Feature", "properties": {"Type": "Pemukiman"}, "geometry": {"type": "Polygon", "coordinates": [[[112.565483, -7.061329], [112.566474, -7.062019], [112.567172, -7.061081], [112.56642, -7.060575], [112.566251, -7.060731], [112.565483, -7.061329]]]}}, {"type": "Feature", "properties": {"Type": "Pemukiman"}, "geometry": {"type": "Polygon", "coordinates": [[[112.569888, -7.063692], [112.569732, -7.064153], [112.569732, -7.064156], [112.570316, -7.06435], [112.57049, -7.063906], [112.569888, -7.063692]]]}}, {"type": "Feature", "properties": {"Type": "Pemukiman"}, "geometry": {"type": "Polygon", "coordinates": [[[112.576163, -7.054159], [112.57617, -7.055788], [112.581367, -7.055571], [112.581307, -7.054106], [112.576163, -7.054159]]]}}, {"type": "Feature", "properties": {"Type": "Pemukiman"}, "geometry": {"type": "Polygon", "coordinates": [[[112.571783, -7.052467], [112.571783, -7.053394], [112.576046, -7.05447], [112.576038, -7.052871], [112.571783, -7.052467]]]}}, {"type": "Feature", "properties": {"Type": "Pemukiman"}, "geometry": {"type": "Polygon", "coordinates": [[[112.575711, -7.047835], [112.575955, -7.050209], [112.577157, -7.050154], [112.577502, -7.04895], [112.576857, -7.047846], [112.575711, -7.047835]]]}}, {"type": "Feature", "properties": {"Type": "Pemukiman"}, "geometry": {"type": "Polygon", "coordinates": [[[112.577891, -7.049182], [112.577691, -7.050849], [112.579248, -7.051048], [112.579171, -7.049281], [112.577891, -7.049182]]]}}, {"type": "Feature", "properties": {"Type": "Pemukiman"}, "geometry": {"type": "Polygon", "coordinates": [[[112.579475, -7.051481], [112.577733, -7.051154], [112.577577, -7.052799], [112.579346, -7.052777], [112.579475, -7.051481]]]}}, {"type": "Feature", "properties": {"Type": "Pemukiman"}, "geometry": {"type": "Polygon", "coordinates": [[[112.583857, -7.055014], [112.584129, -7.05645], [112.58721, -7.055995], [112.586752, -7.054786], [112.583857, -7.055014]]]}}, {"type": "Feature", "properties": {"Type": "Pemukiman"}, "geometry": {"type": "Polygon", "coordinates": [[[112.582739, -7.055511], [112.582983, -7.057304], [112.584029, -7.056792], [112.583742, -7.055426], [112.582739, -7.055511]]]}}, {"type": "Feature", "properties": {"Type": "Pemukiman"}, "geometry": {"type": "Polygon", "coordinates": [[[112.586299, -7.053719], [112.585243, -7.054281], [112.585243, -7.054832], [112.586353, -7.054724], [112.586702, -7.054324], [112.586299, -7.053719]]]}}, {"type": "Feature", "properties": {"Type": "Pemukiman"}, "geometry": {"type": "Polygon", "coordinates": [[[112.581936, -7.053367], [112.581761, -7.054264], [112.583123, -7.054339], [112.583221, -7.053356], [112.581936, -7.053367]]]}}, {"type": "Feature", "properties": {"Type": "Pemukiman"}, "geometry": {"type": "Polygon", "coordinates": [[[112.581564, -7.054332], [112.583198, -7.055262], [112.58334, -7.054646], [112.582642, -7.054483], [112.581564, -7.054332]]]}}, {"type": "Feature", "properties": {"Type": "Pemukiman"}, "geometry": {"type": "Polygon", "coordinates": [[[112.570717, -7.049449], [112.571918, -7.050477], [112.572219, -7.049083], [112.571494, -7.049108], [112.570782, -7.049234], [112.570717, -7.049449]]]}}, {"type": "Feature", "properties": {"Type": "Pemukiman"}, "geometry": {"type": "Polygon", "coordinates": [[[112.572431, -7.049664], [112.572166, -7.05064], [112.573891, -7.05073], [112.573949, -7.049889], [112.572431, -7.049664]]]}}, {"type": "Feature", "properties": {"Type": "Pemukiman"}, "geometry": {"type": "Polygon", "coordinates": [[[112.573079, -7.050751], [112.572972, -7.051911], [112.573626, -7.052062], [112.573804, -7.051782], [112.573807, -7.050938], [112.57383, -7.050777], [112.573079, -7.050751]]]}}, {"type": "Feature", "properties": {"Type": "Pemukiman"}, "geometry": {"type": "Polygon", "coordinates": [[[112.573011, -7.052097], [112.572953, -7.052412], [112.575128, -7.052678], [112.575189, -7.052296], [112.574403, -7.052229], [112.573011, -7.052097]]]}}, {"type": "Feature", "properties": {"Type": "Pemukiman"}, "geometry": {"type": "Polygon", "coordinates": [[[112.558974, -7.050849], [112.560712, -7.051595], [112.560959, -7.051154], [112.5608, -7.050827], [112.559188, -7.050174], [112.558974, -7.050849]]]}}, {"type": "Feature", "properties": {"Type": "Pemukiman"}, "geometry": {"type": "Polygon", "coordinates": [[[112.558814, -7.049955], [112.560509, -7.050603], [112.560563, -7.050364], [112.559061, -7.049732], [112.558814, -7.049955]]]}}, {"type": "Feature", "properties": {"Type": "Pemukiman"}, "geometry": {"type": "Polygon", "coordinates": [[[112.560624, -7.050184], [112.560766, -7.050266], [112.561156, -7.049776], [112.560871, -7.049547], [112.560624, -7.050184]]]}}, {"type": "Feature", "properties": {"Type": "Pemukiman"}, "geometry": {"type": "Polygon", "coordinates": [[[112.561309, -7.049046], [112.560991, -7.049536], [112.561326, -7.049596], [112.561287, -7.050162], [112.562329, -7.050636], [112.562669, -7.049563], [112.561309, -7.049046]]]}}, {"type": "Feature", "properties": {"Type": "Pemukiman"}, "geometry": {"type": "Polygon", "coordinates": [[[112.561377, -7.048542], [112.561196, -7.048896], [112.56255, -7.049473], [112.562742, -7.049043], [112.561377, -7.048542]]]}}, {"type": "Feature", "properties": {"Type": "Pemukiman"}, "geometry": {"type": "Polygon", "coordinates": [[[112.562421, -7.050602], [112.563234, -7.050849], [112.563598, -7.049412], [112.562889, -7.049172], [112.562421, -7.050602]]]}}, {"type": "Feature", "properties": {"Type": "Pemukiman"}, "geometry": {"type": "Polygon", "coordinates": [[[112.551106, -7.045737], [112.551824, -7.045809], [112.552167, -7.045895], [112.552272, -7.045787], [112.552025, -7.045628], [112.552981, -7.045986], [112.55277, -7.046576], [112.553191, -7.046771], [112.55342, -7.045582], [112.551408, -7.044915], [112.551106, -7.045737]]]}}, {"type": "Feature", "properties": {"Type": "Pemukiman"}, "geometry": {"type": "Polygon", "coordinates": [[[112.551601, -7.044486], [112.551469, -7.044867], [112.553417, -7.045539], [112.55354, -7.045117], [112.551601, -7.044486]]]}}, {"type": "Feature", "properties": {"Type": "Pemukiman"}, "geometry": {"type": "Polygon", "coordinates": [[[112.553584, -7.045148], [112.553465, -7.04557], [112.554947, -7.046064], [112.555097, -7.045615], [112.553584, -7.045148]]]}}, {"type": "Feature", "properties": {"Type": "Pemukiman"}, "geometry": {"type": "Polygon", "coordinates": [[[112.553452, -7.045644], [112.553375, -7.046044], [112.554788, -7.046538], [112.554911, -7.046112], [112.553452, -7.045644]]]}}, {"type": "Feature", "properties": {"Type": "Pemukiman"}, "geometry": {"type": "Polygon", "coordinates": [[[112.55337, -7.046157], [112.55327, -7.046515], [112.553462, -7.046593], [112.553603, -7.046466], [112.553983, -7.046488], [112.554047, -7.046343], [112.55337, -7.046157]]]}}, {"type": "Feature", "properties": {"Type": "Pemukiman"}, "geometry": {"type": "Polygon", "coordinates": [[[112.555643, -7.045839], [112.555483, -7.046252], [112.556822, -7.046706], [112.556978, -7.046239], [112.555643, -7.045839]]]}}, {"type": "Feature", "properties": {"Type": "Pemukiman"}, "geometry": {"type": "Polygon", "coordinates": [[[112.55547, -7.046324], [112.555255, -7.046673], [112.556389, -7.047132], [112.556467, -7.046995], [112.556691, -7.047059], [112.556777, -7.046741], [112.55547, -7.046324]]]}}, {"type": "Feature", "properties": {"Type": "Pemukiman"}, "geometry": {"type": "Polygon", "coordinates": [[[112.557026, -7.046279], [112.556912, -7.046519], [112.557662, -7.046742], [112.557776, -7.046524], [112.557026, -7.046279]]]}}, {"type": "Feature", "properties": {"Type": "Pemukiman"}, "geometry": {"type": "Polygon", "coordinates": [[[112.55588, -7.045699], [112.557746, -7.046358], [112.557933, -7.045808], [112.557, -7.045627], [112.556753, -7.045645], [112.55599, -7.045436], [112.55588, -7.045699]]]}}, {"type": "Feature", "properties": {"Type": "Pemukiman"}, "geometry": {"type": "Polygon", "coordinates": [[[112.553964, -7.045045], [112.55572, -7.045639], [112.555734, -7.045639], [112.555771, -7.044859], [112.554344, -7.044423], [112.553964, -7.045045]]]}}, {"type": "Feature", "properties": {"Type": "Pemukiman"}, "geometry": {"type": "Polygon", "coordinates": [[[112.54689, -7.048722], [112.548978, -7.04997], [112.55029, -7.050771], [112.551294, -7.051463], [112.551872, -7.050645], [112.549417, -7.049158], [112.547173, -7.048119], [112.54689, -7.048722]]]}}, {"type": "Feature", "properties": {"Type": "Pemukiman"}, "geometry": {"type": "Polygon", "coordinates": [[[112.562489, -7.052725], [112.563487, -7.052985], [112.563867, -7.051798], [112.562648, -7.051594], [112.562489, -7.052725]]]}}, {"type": "Feature", "properties": {"Type": "Pemukiman"}, "geometry": {"type": "Polygon", "coordinates": [[[112.564088, -7.052054], [112.563905, -7.051984], [112.563684, -7.052793], [112.56514, -7.053068], [112.56537, -7.05229], [112.564088, -7.052054]]]}}, {"type": "Feature", "properties": {"Type": "Pemukiman"}, "geometry": {"type": "Polygon", "coordinates": [[[112.564841, -7.050647], [112.564437, -7.051834], [112.565466, -7.051983], [112.56549, -7.052556], [112.566543, -7.052989], [112.566867, -7.051347], [112.564841, -7.050647]]]}}, {"type": "Feature", "properties": {"Type": "Pemukiman"}, "geometry": {"type": "Polygon", "coordinates": [[[112.569646, -7.052077], [112.569575, -7.052855], [112.571356, -7.053075], [112.571245, -7.052344], [112.569646, -7.052077]]]}}, {"type": "Feature", "properties": {"Type": "Pemukiman"}, "geometry": {"type": "Polygon", "coordinates": [[[112.572704, -7.053869], [112.572252, -7.055668], [112.575055, -7.056383], [112.575221, -7.054553], [112.572704, -7.053869]]]}}, {"type": "Feature", "properties": {"Type": "Pemukiman"}, "geometry": {"type": "Polygon", "coordinates": [[[112.568509, -7.053891], [112.568443, -7.054216], [112.568599, -7.054249], [112.568839, -7.054283], [112.568902, -7.054279], [112.568908, -7.053967], [112.568748, -7.053875], [112.568509, -7.053891]]]}}], "crs": {"type": "name", "properties": {"name": "urn:ogc:def:crs:OGC:1.3:CRS84"}}}