{"type": "FeatureCollection", "name": "Air", "features": [{"type": "Feature", "properties": {"Type": "Air"}, "geometry": {"type": "Polygon", "coordinates": [[[111.214523, -7.677182], [111.214472, -7.67731], [111.214509, -7.67752], [111.214541, -7.677609], [111.214583, -7.677816], [111.214684, -7.677949], [111.214774, -7.677996], [111.214767, -7.678037], [111.214873, -7.678122], [111.214891, -7.678222], [111.214951, -7.678231], [111.214926, -7.6783], [111.214937, -7.67835], [111.214921, -7.678393], [111.214983, -7.678466], [111.215034, -7.678541], [111.215158, -7.678649], [111.215204, -7.67871], [111.215289, -7.678788], [111.215303, -7.678833], [111.215416, -7.678881], [111.215388, -7.678927], [111.215448, -7.678984], [111.215526, -7.67902], [111.215823, -7.679084], [111.215961, -7.679102], [111.216023, -7.678979], [111.216081, -7.67895], [111.216311, -7.679013], [111.216387, -7.679077], [111.216405, -7.679157], [111.216472, -7.679235], [111.216594, -7.679308], [111.216596, -7.679435], [111.216681, -7.679428], [111.216877, -7.679488], [111.217185, -7.679465], [111.217316, -7.679428], [111.217576, -7.679433], [111.21773, -7.679497], [111.218048, -7.679543], [111.218213, -7.679635], [111.218418, -7.679477], [111.218662, -7.679392], [111.219125, -7.679504], [111.219257, -7.679602], [111.219653, -7.679641], [111.220433, -7.679432], [111.220935, -7.679268], [111.220988, -7.678914], [111.221199, -7.678253], [111.221127, -7.677932], [111.221054, -7.67748], [111.220981, -7.676943], [111.220995, -7.676426], [111.220446, -7.675994], [111.21999, -7.675653], [111.218979, -7.675136], [111.218755, -7.675136], [111.218583, -7.675241], [111.218094, -7.675706], [111.217539, -7.675994], [111.216607, -7.67621], [111.215781, -7.676511], [111.215993, -7.676924], [111.216264, -7.677539], [111.216515, -7.678017], [111.216931, -7.678613], [111.216739, -7.67879], [111.216396, -7.678862], [111.216072, -7.678705], [111.215913, -7.67822], [111.216125, -7.678063], [111.216429, -7.678011], [111.215656, -7.676557], [111.214523, -7.677182]]]}}, {"type": "Feature", "properties": {"Type": "Air"}, "geometry": {"type": "Polygon", "coordinates": [[[111.562432, -7.411267], [111.563883, -7.410744], [111.564, -7.410468], [111.563861, -7.410242], [111.563866, -7.409917], [111.564016, -7.409657], [111.563777, -7.409597], [111.563549, -7.409492], [111.562793, -7.409453], [111.562287, -7.409525], [111.561725, -7.409674], [111.561553, -7.409735], [111.561659, -7.409961], [111.561775, -7.41017], [111.561948, -7.410275], [111.561981, -7.410396], [111.562003, -7.410495], [111.562126, -7.410595], [111.562343, -7.410584], [111.562348, -7.410744], [111.562104, -7.410788], [111.562432, -7.411267]]]}}, {"type": "Feature", "properties": {"Type": "Air"}, "geometry": {"type": "Polygon", "coordinates": [[[112.419328, -6.979246], [112.420775, -6.980387], [112.419869, -6.984711], [112.421452, -6.984939], [112.422561, -6.985181], [112.423738, -6.985557], [112.424631, -6.985785], [112.426918, -6.986349], [112.427324, -6.981515], [112.427729, -6.9813], [112.427946, -6.980844], [112.428528, -6.980038], [112.428609, -6.979125], [112.428365, -6.978453], [112.427953, -6.978706], [112.427408, -6.979007], [112.4271, -6.978926], [112.426673, -6.97935], [112.426165, -6.979409], [112.425489, -6.979007], [112.424978, -6.978754], [112.424902, -6.979227], [112.424297, -6.979302], [112.423673, -6.979361], [112.422997, -6.979291], [112.419328, -6.979246]]]}}, {"type": "Feature", "properties": {"Type": "Air"}, "geometry": {"type": "Polygon", "coordinates": [[[112.555675, -7.022293], [112.556284, -7.022455], [112.556633, -7.022539], [112.558177, -7.022911], [112.559115, -7.020269], [112.558568, -7.020137], [112.558512, -7.020137], [112.55891, -7.018901], [112.558825, -7.018801], [112.558652, -7.018695], [112.558548, -7.018669], [112.558381, -7.018668], [112.558296, -7.018664], [112.558159, -7.018655], [112.558009, -7.018619], [112.557814, -7.018609], [112.557582, -7.0186], [112.557406, -7.018625], [112.557325, -7.018671], [112.557273, -7.018742], [112.556754, -7.020731], [112.555675, -7.022293]]]}}, {"type": "Feature", "properties": {"Type": "Air"}, "geometry": {"type": "Polygon", "coordinates": [[[112.560776, -7.023674], [112.560382, -7.024909], [112.561158, -7.025201], [112.561444, -7.024201], [112.560991, -7.023965], [112.561042, -7.023732], [112.561032, -7.023719], [112.560776, -7.023674]]]}}, {"type": "Feature", "properties": {"Type": "Air"}, "geometry": {"type": "Polygon", "coordinates": [[[112.561909, -7.024257], [112.561839, -7.024407], [112.561601, -7.024274], [112.561529, -7.024277], [112.561211, -7.025224], [112.561513, -7.025334], [112.561995, -7.025512], [112.56233, -7.024436], [112.562291, -7.024413], [112.562185, -7.024394], [112.562088, -7.024341], [112.561909, -7.024257]]]}}, {"type": "Feature", "properties": {"Type": "Air"}, "geometry": {"type": "Polygon", "coordinates": [[[112.562572, -7.024486], [112.562365, -7.025073], [112.56226, -7.025377], [112.562193, -7.025615], [112.562867, -7.02595], [112.56295, -7.025773], [112.563157, -7.025323], [112.563259, -7.025099], [112.56325, -7.025009], [112.563217, -7.024884], [112.563094, -7.024683], [112.562919, -7.024611], [112.562838, -7.024588], [112.562663, -7.024517], [112.562613, -7.024492], [112.562572, -7.024486]]]}}, {"type": "Feature", "properties": {"Type": "Air"}, "geometry": {"type": "Polygon", "coordinates": [[[112.564454, -7.026852], [112.564011, -7.026628], [112.563611, -7.026419], [112.563309, -7.027093], [112.56398, -7.027382], [112.564116, -7.027009], [112.564194, -7.027004], [112.564371, -7.027078], [112.564454, -7.026852]]]}}, {"type": "Feature", "properties": {"Type": "Air"}, "geometry": {"type": "Polygon", "coordinates": [[[112.562901, -7.026136], [112.562709, -7.026049], [112.562579, -7.026293], [112.562364, -7.026726], [112.562381, -7.026786], [112.562479, -7.026833], [112.563252, -7.027068], [112.563447, -7.026625], [112.563308, -7.026582], [112.563414, -7.026323], [112.563162, -7.02624], [112.563054, -7.026209], [112.562975, -7.026222], [112.562913, -7.026226], [112.562894, -7.026158], [112.562901, -7.026136]]]}}, {"type": "Feature", "properties": {"Type": "Air"}, "geometry": {"type": "Polygon", "coordinates": [[[112.562046, -7.02663], [112.562185, -7.026369], [112.562394, -7.026455], [112.562635, -7.026005], [112.561833, -7.025684], [112.561487, -7.026429], [112.562046, -7.02663]]]}}, {"type": "Feature", "properties": {"Type": "Air"}, "geometry": {"type": "Polygon", "coordinates": [[[112.555758, -7.022555], [112.555215, -7.024187], [112.555544, -7.024284], [112.555637, -7.024272], [112.555791, -7.024312], [112.556056, -7.024392], [112.556516, -7.023291], [112.556672, -7.02299], [112.556606, -7.02292], [112.556696, -7.022861], [112.556708, -7.022772], [112.555758, -7.022555]]]}}, {"type": "Feature", "properties": {"Type": "Air"}, "geometry": {"type": "Polygon", "coordinates": [[[112.557483, -7.025649], [112.557283, -7.026553], [112.557537, -7.026537], [112.557575, -7.026292], [112.557671, -7.026137], [112.557824, -7.025831], [112.557483, -7.025649]]]}}, {"type": "Feature", "properties": {"Type": "Air"}, "geometry": {"type": "Polygon", "coordinates": [[[112.523466, -7.041694], [112.524394, -7.041664], [112.524292, -7.040975], [112.524241, -7.040337], [112.524425, -7.039952], [112.524955, -7.039902], [112.525823, -7.040287], [112.526435, -7.040945], [112.527271, -7.041694], [112.528108, -7.042595], [112.528883, -7.043375], [112.529689, -7.042848], [112.528894, -7.042079], [112.528424, -7.041694], [112.528037, -7.041218], [112.527669, -7.040884], [112.5272, -7.040499], [112.526833, -7.040084], [112.526323, -7.03973], [112.525853, -7.039446], [112.525466, -7.039142], [112.524935, -7.039021], [112.524486, -7.039082], [112.523986, -7.039274], [112.523568, -7.039578], [112.523262, -7.040104], [112.523211, -7.0406], [112.523466, -7.041694]]]}}, {"type": "Feature", "properties": {"Type": "Air"}, "geometry": {"type": "Polygon", "coordinates": [[[112.453315, -7.229811], [112.453607, -7.228847], [112.453404, -7.227006], [112.453506, -7.225113], [112.453381, -7.225151], [112.453269, -7.225383], [112.453016, -7.22551], [112.452866, -7.225599], [112.452771, -7.225678], [112.452643, -7.225826], [112.452488, -7.225929], [112.452348, -7.226259], [112.452304, -7.226516], [112.452271, -7.226743], [112.452222, -7.227019], [112.452184, -7.227639], [112.452133, -7.227757], [112.451762, -7.227839], [112.451724, -7.227971], [112.451637, -7.228044], [112.451623, -7.228236], [112.451569, -7.228376], [112.45146, -7.228833], [112.45146, -7.229009], [112.451511, -7.229184], [112.451607, -7.229271], [112.451697, -7.229346], [112.451958, -7.229463], [112.452247, -7.229573], [112.452737, -7.229811], [112.452988, -7.229952], [112.453249, -7.230022], [112.453315, -7.229811]]]}}, {"type": "Feature", "properties": {"Type": "Air"}, "geometry": {"type": "Polygon", "coordinates": [[[112.453772, -7.228937], [112.453492, -7.229811], [112.4536, -7.229846], [112.453706, -7.229849], [112.453857, -7.229899], [112.453969, -7.229928], [112.454144, -7.229036], [112.454096, -7.228988], [112.45404, -7.229017], [112.454005, -7.228988], [112.453772, -7.228937]]]}}, {"type": "Feature", "properties": {"Type": "Air"}, "geometry": {"type": "Polygon", "coordinates": [[[112.459588, -7.212027], [112.459315, -7.213532], [112.45982, -7.213632], [112.459831, -7.214147], [112.459906, -7.214225], [112.45982, -7.214284], [112.459816, -7.214488], [112.459764, -7.214996], [112.459719, -7.215185], [112.459737, -7.215452], [112.459779, -7.215574], [112.459872, -7.21563], [112.459962, -7.21557], [112.46007, -7.21547], [112.460156, -7.21517], [112.460227, -7.21467], [112.460332, -7.213665], [112.460343, -7.213124], [112.460365, -7.212935], [112.460395, -7.212735], [112.460436, -7.212579], [112.460455, -7.212231], [112.460373, -7.212175], [112.460208, -7.212142], [112.459588, -7.212027]]]}}, {"type": "Feature", "properties": {"Type": "Air"}, "geometry": {"type": "Polygon", "coordinates": [[[112.458935, -7.211852], [112.458882, -7.21187], [112.458786, -7.211953], [112.458728, -7.212035], [112.458414, -7.213315], [112.458498, -7.213438], [112.458738, -7.213443], [112.459236, -7.213518], [112.459466, -7.212147], [112.459418, -7.212059], [112.459499, -7.212024], [112.459481, -7.211901], [112.458935, -7.211852]]]}}, {"type": "Feature", "properties": {"Type": "Air"}, "geometry": {"type": "Polygon", "coordinates": [[[112.44893, -7.217439], [112.448887, -7.217499], [112.449367, -7.218302], [112.449451, -7.218368], [112.449711, -7.218405], [112.449893, -7.21842], [112.450523, -7.218477], [112.450595, -7.21803], [112.450575, -7.217852], [112.44893, -7.217439]]]}}, {"type": "Feature", "properties": {"Type": "Air"}, "geometry": {"type": "Polygon", "coordinates": [[[112.441035, -7.236164], [112.441318, -7.236214], [112.441658, -7.236293], [112.441986, -7.236372], [112.442295, -7.236444], [112.442778, -7.236535], [112.443152, -7.236607], [112.443225, -7.236262], [112.443201, -7.236099], [112.443148, -7.235896], [112.44301, -7.235857], [112.441615, -7.235798], [112.441158, -7.235762], [112.441035, -7.236164]]]}}, {"type": "Feature", "properties": {"Type": "Air"}, "geometry": {"type": "Polygon", "coordinates": [[[112.436464, -7.239421], [112.436322, -7.239418], [112.436203, -7.239477], [112.436103, -7.23961], [112.435969, -7.239702], [112.435533, -7.239783], [112.435347, -7.239861], [112.434953, -7.239901], [112.434577, -7.239942], [112.434465, -7.239857], [112.434405, -7.239861], [112.434327, -7.241013], [112.434372, -7.241053], [112.434763, -7.241053], [112.435961, -7.24105], [112.436464, -7.239421]]]}}, {"type": "Feature", "properties": {"Type": "Air"}, "geometry": {"type": "Polygon", "coordinates": [[[112.432918, -7.239979], [112.432774, -7.239999], [112.432603, -7.239982], [112.432398, -7.240028], [112.432303, -7.240068], [112.432557, -7.241083], [112.432768, -7.24106], [112.433025, -7.241043], [112.433384, -7.241066], [112.434245, -7.241083], [112.434317, -7.239853], [112.434288, -7.239767], [112.434135, -7.239744], [112.433988, -7.239687], [112.433838, -7.23971], [112.433728, -7.239727], [112.433606, -7.239664], [112.433551, -7.239604], [112.433496, -7.239586], [112.433392, -7.239586], [112.432918, -7.239979]]]}}, {"type": "Feature", "properties": {"Type": "Air"}, "geometry": {"type": "Polygon", "coordinates": [[[112.427927, -7.246583], [112.428567, -7.246418], [112.428814, -7.246131], [112.429043, -7.24573], [112.429215, -7.245443], [112.4293, -7.24529], [112.429363, -7.245129], [112.429414, -7.24494], [112.429496, -7.244779], [112.429625, -7.244551], [112.429625, -7.244524], [112.429398, -7.244395], [112.429374, -7.244345], [112.429422, -7.244123], [112.429519, -7.243986], [112.428895, -7.243629], [112.428647, -7.243489], [112.428478, -7.243393], [112.428155, -7.243249], [112.427965, -7.243195], [112.427685, -7.243121], [112.427066, -7.242983], [112.427057, -7.243028], [112.428258, -7.243537], [112.428394, -7.243608], [112.428421, -7.244237], [112.428418, -7.244392], [112.428466, -7.244464], [112.428484, -7.244569], [112.428469, -7.244701], [112.428448, -7.244826], [112.428433, -7.244889], [112.428563, -7.244964], [112.428668, -7.245045], [112.428647, -7.24515], [112.428575, -7.24531], [112.428533, -7.245367], [112.428361, -7.245337], [112.427927, -7.246583]]]}}, {"type": "Feature", "properties": {"Type": "Air"}, "geometry": {"type": "Polygon", "coordinates": [[[112.420086, -7.239285], [112.420065, -7.239659], [112.420547, -7.239758], [112.420631, -7.239767], [112.420694, -7.23981], [112.4207, -7.239918], [112.420725, -7.24002], [112.42093, -7.240039], [112.421014, -7.239906], [112.421049, -7.239619], [112.421099, -7.239152], [112.421083, -7.238843], [112.421095, -7.238407], [112.42103, -7.238389], [112.420937, -7.238324], [112.420843, -7.238315], [112.420734, -7.238355], [112.420086, -7.239285]]]}}, {"type": "Feature", "properties": {"Type": "Air"}, "geometry": {"type": "Polygon", "coordinates": [[[112.419296, -7.237998], [112.419564, -7.238103], [112.419642, -7.238218], [112.419632, -7.238425], [112.419576, -7.238585], [112.419601, -7.238647], [112.419576, -7.238687], [112.419517, -7.238947], [112.419499, -7.239126], [112.419779, -7.2392], [112.42004, -7.239253], [112.420177, -7.23903], [112.420486, -7.238616], [112.420726, -7.238301], [112.420763, -7.238119], [112.420782, -7.237819], [112.420651, -7.237816], [112.420529, -7.237754], [112.420402, -7.237739], [112.420277, -7.237751], [112.42019, -7.237689], [112.41991, -7.237618], [112.41962, -7.237553], [112.419536, -7.237764], [112.419477, -7.237896], [112.419365, -7.237906], [112.419296, -7.237998]]]}}, {"type": "Feature", "properties": {"Type": "Air"}, "geometry": {"type": "Polygon", "coordinates": [[[112.430375, -7.254094], [112.428751, -7.254021], [112.428457, -7.254843], [112.427996, -7.255331], [112.427828, -7.256548], [112.427818, -7.256725], [112.427965, -7.257005], [112.428269, -7.257016], [112.429851, -7.256714], [112.430375, -7.254094]]]}}, {"type": "Feature", "properties": {"Type": "Air"}, "geometry": {"type": "Polygon", "coordinates": [[[112.444259, -7.255462], [112.44453, -7.255558], [112.444696, -7.25571], [112.447766, -7.255648], [112.448155, -7.253554], [112.447946, -7.25363], [112.447669, -7.253519], [112.444669, -7.253196], [112.444259, -7.255462]]]}}, {"type": "Feature", "properties": {"Type": "Air"}, "geometry": {"type": "Polygon", "coordinates": [[[112.63097, -7.156768], [112.632694, -7.157597], [112.63309, -7.157915], [112.63324, -7.157777], [112.633743, -7.158117], [112.634054, -7.157979], [112.634322, -7.157799], [112.634536, -7.158139], [112.63611, -7.158107], [112.636817, -7.15833], [112.637866, -7.157469], [112.637523, -7.157225], [112.637116, -7.157055], [112.636624, -7.156917], [112.635746, -7.156545], [112.635307, -7.156247], [112.634771, -7.15613], [112.634547, -7.155982], [112.633733, -7.155759], [112.633519, -7.155461], [112.633112, -7.155323], [112.631645, -7.15476], [112.63097, -7.156768]]]}}, {"type": "Feature", "properties": {"Type": "Air"}, "geometry": {"type": "Polygon", "coordinates": [[[112.622713, -7.152934], [112.622912, -7.153206], [112.623461, -7.15309], [112.623569, -7.153272], [112.623735, -7.153404], [112.623935, -7.153742], [112.625066, -7.154221], [112.625373, -7.154064], [112.625914, -7.154353], [112.626205, -7.154575], [112.626911, -7.154831], [112.627252, -7.154699], [112.627696, -7.154737], [112.628012, -7.154655], [112.628178, -7.154894], [112.628519, -7.1551], [112.628727, -7.155199], [112.629084, -7.155109], [112.629409, -7.154795], [112.629874, -7.154358], [112.629733, -7.154135], [112.629409, -7.153912], [112.629334, -7.153418], [112.629517, -7.153079], [112.629359, -7.152832], [112.629043, -7.152601], [112.628677, -7.152494], [112.628527, -7.152683], [112.628319, -7.15289], [112.628045, -7.153079], [112.627704, -7.153013], [112.627047, -7.152667], [112.626199, -7.152263], [112.626083, -7.152081], [112.625543, -7.151908], [112.625202, -7.151834], [112.624561, -7.151702], [112.624021, -7.151495], [112.623614, -7.151471], [112.623115, -7.151561], [112.62284, -7.151784], [112.622682, -7.152139], [112.622713, -7.152934]]]}}, {"type": "Feature", "properties": {"Type": "Air"}, "geometry": {"type": "Polygon", "coordinates": [[[112.591447, -7.149271], [112.591664, -7.149274], [112.592684, -7.149256], [112.592671, -7.149111], [112.592704, -7.149016], [112.592787, -7.14872], [112.592686, -7.148633], [112.592684, -7.148322], [112.592815, -7.148187], [112.59283, -7.148061], [112.592777, -7.148014], [112.592414, -7.147989], [112.592356, -7.148069], [112.592212, -7.148054], [112.592171, -7.148009], [112.592053, -7.148001], [112.591924, -7.148069], [112.59155, -7.148382], [112.591447, -7.149271]]]}}, {"type": "Feature", "properties": {"Type": "Air"}, "geometry": {"type": "Polygon", "coordinates": [[[112.26786, -7.205007], [112.267922, -7.207783], [112.270261, -7.206333], [112.27331, -7.208239], [112.27496, -7.208964], [112.276547, -7.207762], [112.272266, -7.205007], [112.26786, -7.205007]]]}}, {"type": "Feature", "properties": {"Type": "Air"}, "geometry": {"type": "Polygon", "coordinates": [[[112.264623, -7.203059], [112.265625, -7.205318], [112.268987, -7.204344], [112.269071, -7.202935], [112.264623, -7.203059]]]}}, {"type": "Feature", "properties": {"Type": "Air"}, "geometry": {"type": "Polygon", "coordinates": [[[112.262493, -7.206208], [112.262367, -7.207431], [112.2655, -7.207596], [112.266168, -7.205566], [112.262493, -7.206208]]]}}, {"type": "Feature", "properties": {"Type": "Air"}, "geometry": {"type": "Polygon", "coordinates": [[[112.783011, -7.269621], [112.783585, -7.269739], [112.783663, -7.269123], [112.783376, -7.269135], [112.783195, -7.269253], [112.783011, -7.269621]]]}}, {"type": "Feature", "properties": {"Type": "Air"}, "geometry": {"type": "Polygon", "coordinates": [[[112.782829, -7.269208], [112.783475, -7.26884], [112.783344, -7.268645], [112.782929, -7.268576], [112.78281, -7.268614], [112.78272, -7.26888], [112.782829, -7.269208]]]}}, {"type": "Feature", "properties": {"Type": "Air"}, "geometry": {"type": "Polygon", "coordinates": [[[112.429944, -6.74868], [112.405556, -6.826853], [112.518082, -6.838323], [112.577982, -6.773323], [112.429944, -6.74868]]]}}, {"type": "Feature", "properties": {"Type": "Air"}, "geometry": {"type": "Polygon", "coordinates": [[[112.289205, -6.720271], [112.179422, -6.648407], [112.161125, -6.779738], [112.24263, -6.823507], [112.364056, -6.824333], [112.388175, -6.742572], [112.289205, -6.720271]]]}}, {"type": "Feature", "properties": {"Type": "Air"}, "geometry": {"type": "Polygon", "coordinates": [[[112.591524, -7.244638], [112.591533, -7.243634], [112.591405, -7.243524], [112.591486, -7.243426], [112.591486, -7.242999], [112.590063, -7.243469], [112.59026, -7.244274], [112.591524, -7.244638]]]}}, {"type": "Feature", "properties": {"Type": "Air"}, "geometry": {"type": "Polygon", "coordinates": [[[112.604475, -7.245792], [112.602605, -7.24567], [112.602257, -7.246072], [112.602011, -7.246271], [112.602003, -7.24645], [112.602187, -7.246612], [112.602429, -7.246779], [112.602711, -7.246949], [112.603002, -7.247059], [112.603268, -7.247136], [112.603395, -7.247294], [112.603673, -7.247448], [112.603873, -7.247456], [112.603939, -7.247144], [112.604074, -7.246665], [112.604287, -7.245902], [112.604475, -7.245792]]]}}, {"type": "Feature", "properties": {"Type": "Air"}, "geometry": {"type": "Polygon", "coordinates": [[[112.607511, -7.275455], [112.607489, -7.275863], [112.607661, -7.275893], [112.607828, -7.275973], [112.607919, -7.276001], [112.608003, -7.276033], [112.608106, -7.276065], [112.608302, -7.276081], [112.608344, -7.276029], [112.608316, -7.275951], [112.608068, -7.275779], [112.607941, -7.275693], [112.607848, -7.275621], [112.607743, -7.275573], [112.607604, -7.275507], [112.607511, -7.275455]]]}}, {"type": "Feature", "properties": {"Type": "Air"}, "geometry": {"type": "Polygon", "coordinates": [[[112.53168, -6.908756], [112.531866, -6.908749], [112.532166, -6.908745], [112.532417, -6.908828], [112.533007, -6.909137], [112.533342, -6.908779], [112.533251, -6.908703], [112.532931, -6.908541], [112.532041, -6.908107], [112.53168, -6.908756]]]}}, {"type": "Feature", "properties": {"Type": "Air"}, "geometry": {"type": "Polygon", "coordinates": [[[112.53279, -6.906913], [112.532672, -6.907015], [112.532509, -6.907113], [112.532414, -6.907208], [112.532376, -6.907563], [112.532547, -6.907684], [112.532737, -6.907774], [112.532828, -6.907895], [112.532935, -6.907865], [112.532961, -6.907929], [112.533368, -6.908065], [112.533547, -6.90802], [112.533505, -6.907854], [112.533114, -6.907363], [112.53279, -6.906913]]]}}, {"type": "Feature", "properties": {"Type": "Air"}, "geometry": {"type": "Polygon", "coordinates": [[[112.606491, -6.893008], [112.607388, -6.896421], [112.607555, -6.896227], [112.607837, -6.896421], [112.60788, -6.896299], [112.607801, -6.896062], [112.60796, -6.896026], [112.607888, -6.895171], [112.607678, -6.894187], [112.607439, -6.89349], [112.607236, -6.893008], [112.606491, -6.893008]]]}}, {"type": "Feature", "properties": {"Type": "Air"}, "geometry": {"type": "Polygon", "coordinates": [[[112.58124, -6.919811], [112.580896, -6.924032], [112.580942, -6.925334], [112.582106, -6.925334], [112.582178, -6.923257], [112.582269, -6.921832], [112.582303, -6.920855], [112.582518, -6.920215], [112.582766, -6.91989], [112.58124, -6.919811]]]}}, {"type": "Feature", "properties": {"Type": "Air"}, "geometry": {"type": "Polygon", "coordinates": [[[112.580819, -6.926111], [112.580769, -6.929615], [112.580769, -6.929615], [112.581085, -6.931621], [112.581174, -6.932403], [112.582219, -6.93166], [112.581952, -6.930104], [112.581903, -6.929644], [112.581903, -6.928274], [112.58209, -6.92616], [112.580819, -6.926111]]]}}, {"type": "Feature", "properties": {"Type": "Air"}, "geometry": {"type": "Polygon", "coordinates": [[[112.476992, -6.97755], [112.477156, -6.977651], [112.477289, -6.977678], [112.477493, -6.977766], [112.477678, -6.977851], [112.477892, -6.977925], [112.478237, -6.978064], [112.478186, -6.977983], [112.478158, -6.977844], [112.478237, -6.977689], [112.478516, -6.977621], [112.478455, -6.977374], [112.478581, -6.977343], [112.478759, -6.977188], [112.478711, -6.977123], [112.478574, -6.977093], [112.478554, -6.977221], [112.478472, -6.977242], [112.478377, -6.977194], [112.478353, -6.977133], [112.478435, -6.977086], [112.47836, -6.977059], [112.478257, -6.977059], [112.478175, -6.977286], [112.47809, -6.97737], [112.477944, -6.977387], [112.477896, -6.977364], [112.477736, -6.97737], [112.477401, -6.977299], [112.477272, -6.977313], [112.477197, -6.977465], [112.477152, -6.977546], [112.476992, -6.97755]]]}}, {"type": "Feature", "properties": {"Type": "Air"}, "geometry": {"type": "Polygon", "coordinates": [[[112.610669, -6.875749], [112.621695, -6.886195], [112.633515, -6.876893], [112.618596, -6.866804], [112.610669, -6.875749]]]}}, {"type": "Feature", "properties": {"Type": "Air"}, "geometry": {"type": "Polygon", "coordinates": [[[112.623346, -6.88846], [112.629431, -6.89958], [112.642775, -6.893952], [112.636068, -6.879468], [112.623346, -6.88846]]]}}, {"type": "Feature", "properties": {"Type": "Air"}, "geometry": {"type": "Polygon", "coordinates": [[[112.630401, -6.902258], [112.631967, -6.918518], [112.646178, -6.916486], [112.643167, -6.897356], [112.630401, -6.902258]]]}}, {"type": "Feature", "properties": {"Type": "Air"}, "geometry": {"type": "Polygon", "coordinates": [[[112.631485, -6.922703], [112.629678, -6.941354], [112.648226, -6.936571], [112.645455, -6.921029], [112.631485, -6.922703]]]}}, {"type": "Feature", "properties": {"Type": "Air"}, "geometry": {"type": "Polygon", "coordinates": [[[112.629507, -6.944548], [112.629219, -6.96293], [112.651, -6.961311], [112.648506, -6.939976], [112.629507, -6.944548]]]}}], "crs": {"type": "name", "properties": {"name": "urn:ogc:def:crs:OGC:1.3:CRS84"}}}